#dP2023  5 15 12  0  0.00000000      96 __u+U ITR00 EXT  IAC
## 2262 129600.00000000   900.00000000 60079 0.5000000000000
+  118   C06C07C08C09C10C11C12C13C14C16C19C20C21C22C23C24C25
+        C26C27C28C29C30C32C33C34C35C36C37C38C39C40C41C42C43
+        C44C45C46E02E04E05E07E08E09E10E11E12E13E14E15E18E19
+        E21E24E25E26E27E30E31E33E34E36G01G02G03G04G05G06G07
+        G08G09G10G11G12G13G14G15G16G17G18G19G20G21G22G23G24
+        G25G26G27G28G29G30G31G32J02J03J04R01R02R03R04R05R07
+        R08R09R11R12R13R14R15R16R17R18R19R20R21R22R24R25  0
++        10  8 10  8  8  9  8  9  8  9 10  9  8  7  9  7  8
++         8  9  8  9  8  7  8  8  9  9  8  9  9 11  8  8  9
++         9 10  9  6  8  6  7  8  8  7  7  7  7  7  7  8  8
++         8  7  7  8  7  8  7  7  8  7  6  7  8  8  7  7  7
++         7  7  7 10  9  7  7  7  7  7  8  7  7  7  6  6  8
++         8  8  7  8  7  8  7  7  9 10  9  8  7  8  8  8  8
++         8  8  8  9  8  9  8  8  7  8  9  9  8  8  8  8  0
%c M  cc GPS ccc cccc cccc cccc cccc ccccc ccccc ccccc ccccc
%c cc cc ccc ccc cccc cccc cccc cccc ccccc ccccc ccccc ccccc
%f  0.0000000  0.000000000  0.00000000000  0.000000000000000
%f  0.0000000  0.000000000  0.00000000000  0.000000000000000
%i    0    0    0    0      0      0      0      0         0
%i    0    0    0    0      0      0      0      0         0
/* IAC                                ULTRA-RAPID PREDICTION
/* S/V CLOCKS ARE ALIGNED TO GNSS TIME                      
/* G:C1WC2W R:C1PC2P E:C1XC5X C:C2IC6I J:C1CC2S             
/* PCV:IGS20_2247 OL/AL:FES2004  NONE     YN ORB:CoN CLK:CoN
*  2023 05 15 21 30  0.00000000
PC06 -16779.313616  27861.499539  26736.182926   -190.888002
PC07  -8393.446704  40209.462101  10002.382760    -24.133392
PC08   -547.746745  23515.113125 -34967.236153    484.595713
PC09  -6502.005547  26820.200014  32165.054798    649.759411
PC10  -2135.582387  42319.683728   2963.606373    -59.307467
PC11  13313.455659   9189.132951 -22676.445983    621.174701
PC12  -5314.214144  19173.061931 -19539.772224    641.676564
PC13   6503.376589  27237.974999 -31286.722890    275.373820
PC14  12514.697125  19540.021386  15569.316730    264.773817
PC16 -20405.326266  27406.385550  24751.542895     77.223325
PC19 -15309.081220  -9975.906274 -21053.492895   -910.586465
PC20  -8514.024374 -24931.312334  -9129.050118    565.776099
PC21  -4015.103492  26018.699786  -9282.399724   -914.995759
PC22 -13645.057588  11524.412826 -21446.682004   -486.739918
PC23  22231.081641  -2869.285963 -16616.350559   -929.544320
PC24  13561.274588  18714.145014  15616.971788    -50.502253
PC25  25981.059448  10024.585598  -1650.327741    127.259442
PC26  -4542.480321  15723.201409  22587.916817   -120.788145
PC27  13097.125427 -20509.702301  13647.020471    140.715712
PC28  23748.643641 -14496.249916  -2146.108505    104.111407
PC29 -20868.381464   -562.418275  18506.962866    120.858431
PC30  -5150.147509 -15730.745330  22458.009276     -0.267706
PC32   3902.677499 -25979.426173   9403.222264   -561.910186
PC33  15399.928150  10022.191557  21018.940623   -882.094056
PC34   6524.689080  14948.814761 -22657.241480    171.477388
PC35 -23400.982169  14894.952271   2837.962629    626.869257
PC36 -25592.914017 -11090.581793    960.492402   -439.717452
PC37   6126.106597 -15093.356152 -22645.481853   -784.279126
PC38  -9665.755987  20968.101007 -35248.378082     78.599478
PC39 -24121.379555  28026.478118  20118.062053     -2.936834
PC40 -13187.342261  38103.463830  12741.903366    -23.291227
PC41  13900.470428 -10795.516889  21709.165625   -943.956259
PC42   7866.560710  25601.599065   7941.900555   -690.541336
PC43  20481.533958   1421.284278 -18924.801592     21.580632
PC44 -12380.378400  21051.188774 -13490.895946    107.714077
PC45 -21921.004733   3131.797433  16995.597629    -98.007817
PC46 -15041.357384 -18479.322857 -14555.195081    -54.288257
PE02  -5159.509302  19388.736910  21753.662113     38.337222
PE04   -886.299635 -24430.026482 -16674.493674   -123.076779
PE05 -20149.364509  12862.309527 -17449.485991    -67.139988
PE07  14881.909298   8301.528177  24215.086078    -45.320453
PE08    615.343135  24543.755657  16551.941162    -83.580253
PE09 -14677.721465  -8364.082886 -24296.057609    -15.923544
PE10 -17738.251708 -12014.291467  20412.327236   -533.978053
PE11 -25913.565277  -6633.187582  12638.678165   1934.574537
PE12  -7500.458003 -15250.174707  24223.245046   -540.083483
PE13  25478.798419   7013.620544 -13349.562378    -19.174295
PE14   9593.769975  20352.328387 -22655.695292    226.151392
PE15   7157.206595  15235.287743 -24350.354292    -22.042858
PE18 -14707.507498  -6454.960171  18886.118076     68.044964
PE19  15004.092002 -25358.420576   2843.121689  -2526.003661
PE21  17850.129031  -2170.464859 -23515.162250   -529.303358
PE24 -20773.322929 -17932.245373  11102.573521   -100.714465
PE25 -18009.620434   1812.294650  23423.758710   -605.114104
PE26  28417.769627  -5667.835094   6048.726119    105.248384
PE27  20959.255156  17267.298455 -11770.597823    -50.335712
PE30  11193.821239  26410.852731   7271.973631   -175.770377
PE31 -11699.433720 -26331.962206  -6774.345490   -523.819469
PE33  15262.488816 -14395.103959  20884.202646   -444.415823
PE34 -15066.660552  14476.141421 -20978.753220    -45.600356
PE36 -28639.526760   5211.237549  -5331.953877    -56.624593
PG01  10954.487985  13479.274280 -20533.981743    185.095209
PG02 -20032.651132  10942.680911 -12960.365388   -595.853560
PG03  12795.012506  23310.465245  -1513.617760   -302.244908
PG04   4798.894043  17819.144407  19072.933761     42.374841
PG05  -1255.661466 -21309.010871  15554.819626   -127.324490
PG06  24755.899776  -5525.110126   8107.929916    588.020045
PG07  23499.936041   7473.712836  10942.910390    177.373915
PG08  -4217.321956  23905.568193 -10372.618055   -122.588672
PG09  12967.282481   8167.115127  21620.136818   -158.076151
PG10 -16945.679955  -1669.323138 -20290.130170    -37.061400
PG11  13735.410870 -12622.744312  18900.299068   -198.157036
PG12  -9297.609639 -24620.124505  -4181.979720   -376.451947
PG13  12549.144790 -22720.881558  -5265.632529    520.433777
PG14  18127.388646   4719.575292 -18875.294021     58.074524
PG15    562.660793 -24245.496899 -10975.786133     39.862479
PG16  -3997.633025  19228.543344  17355.541613   -500.701957
PG17  18532.712054  -7338.725422 -17179.929578    714.923790
PG18 -25046.759431  -5126.805304   7486.218751   -267.716220
PG19  19377.851299 -14027.905440 -11432.940815    317.367423
PG20   5626.346074 -16026.659566  20500.067836    433.399076
PG21   2137.169654  14790.443901 -21410.520622    153.805864
PG22 -18170.471301  17401.420676  -7798.542568    481.900207
PG23 -19047.094442 -13185.246278 -13123.795378     24.502018
PG24  -6852.326216 -15043.713220 -21202.412402   -189.967238
PG25 -17054.946796 -19562.991083   5957.987212    443.065306
PG26 -12627.571134   9382.448935  21277.561410    240.753231
PG27 -12568.665112  23138.808979   -193.015764     36.774266
PG28 -25285.844396   5485.257319   5964.550003     77.838211
PG29  -9773.458044 -11767.268219  21648.684930   -599.535964
PG30  26705.795833   -169.790558     71.699949   -516.983070
PG31 -19582.113187  10372.643834  14794.531351   -216.176935
PG32 -18314.653286  10323.840196 -15931.337154   -477.332024
PJ02 -25234.435186  23808.550748  29104.760092      0.016466
PJ03 -35187.117076  20009.645593  -7071.191843      4.223933
PJ04 -20413.027073  29203.075801 -17450.423227     94.568959
PR01   9633.594893   9855.580432  21475.303774     57.568255
PR02  10832.168096 -10250.561550  20761.366466    -22.827237
PR03   5881.819190 -23625.271551   7752.999554     77.900373
PR04  -1960.037465 -23672.960993  -9274.199609    187.322689
PR05  -8817.232611 -10965.584078 -21264.043227    112.626055
PR07  -5497.149316  23918.174203  -6825.412647     55.983503
PR08   2318.954488  23534.605934   9590.962558    -70.793153
PR09 -17355.018632   -487.866249  18671.876721    120.359728
PR11  12243.846476  16869.700449  14725.864052    -56.694677
PR12  21630.883194  13008.269303  -3609.931448     27.306471
PR13  18354.977606   2317.161185 -17574.586185    -35.078486
PR14   3002.312162 -11282.611174 -22665.201013     24.676697
PR15 -13012.275935 -17140.147612 -13670.951126     89.354910
PR16 -21676.768990 -12990.190049   3342.449884     14.600999
PR17  15040.982161 -14227.764648  14876.957655    630.284189
PR18   -861.920192 -10941.001284  23038.973195     81.701051
PR19 -15377.576267  -3373.246167  20063.283104   -232.735253
PR20 -23919.464069   8343.995681   2776.291560    -92.902785
PR21 -13939.416030  14108.025089 -16060.682835     -7.721796
PR22   1688.139817  10966.620101 -22945.529007     81.652893
PR24  23604.467553  -9421.940112  -2096.108143    170.651471
PR25 -15773.349102  13702.152319 -14644.627296     61.237713
EOF
